start=new Date('2022-07-27T00:00:00.000Z').valueOf();
sats=[{"MEAN_ELEMENT_THEORY":"SGP4","RA_OF_ASC_NODE":"207.2443","RCS_SIZE":"LARGE","TIME_SYSTEM":"UTC","FILE":"3522226","GP_ID":"208898247","APOAPSIS":"548.406","BSTAR":"0.00008544100000","REV_AT_EPOCH":"8417","TLE_LINE2":"2 47385  53.0532 207.2443 0001724  62.2461 297.8702 15.06400467 84172","SEMIMAJOR_AXIS":"6925.347","PERIAPSIS":"546.018","PERIOD":"95.592","NORAD_CAT_ID":"47385","EPOCH":"2022-07-26T11:34:47.331264","DECAY_DATE":null,"MEAN_ANOMALY":"297.8702","ELEMENT_SET_NO":"999","TLE_LINE1":"1 47385U 21005AN  22207.48249226  .00000991  00000-0  85441-4 0  9990","OBJECT_ID":"2021-005AN","ECCENTRICITY":"0.00017240","ARG_OF_PERICENTER":"62.2461","MEAN_MOTION":"15.06400467","REF_FRAME":"TEME","INCLINATION":"53.0532","OBJECT_NAME":"STARLINK-2105","COUNTRY_CODE":"US","MEAN_MOTION_DOT":"0.00000991","OBJECT_TYPE":"PAYLOAD","CLASSIFICATION_TYPE":"U","EPHEMERIS_TYPE":"0","CENTER_NAME":"EARTH","LAUNCH_DATE":"2021-01-20","MEAN_MOTION_DDOT":"0.0000000000000","SITE":"AFETR"},{"DECAY_DATE":null,"EPOCH":"2022-07-26T12:17:15.787392","NORAD_CAT_ID":"47386","PERIOD":"95.592","PERIAPSIS":"546.104","TLE_LINE1":"1 47386U 21005AP  22207.51198828  .00001416  00000-0  11395-3 0  9995","ELEMENT_SET_NO":"999","MEAN_ANOMALY":"305.1721","APOAPSIS":"548.337","GP_ID":"208898999","TIME_SYSTEM":"UTC","FILE":"3522226","RCS_SIZE":"LARGE","RA_OF_ASC_NODE":"207.1097","MEAN_ELEMENT_THEORY":"SGP4","SEMIMAJOR_AXIS":"6925.356","TLE_LINE2":"2 47386  53.0539 207.1097 0001612  54.9419 305.1721 15.06397658 84183","REV_AT_EPOCH":"8418","BSTAR":"0.00011395000000","CLASSIFICATION_TYPE":"U","EPHEMERIS_TYPE":"0","OBJECT_TYPE":"PAYLOAD","SITE":"AFETR","MEAN_MOTION_DDOT":"0.0000000000000","LAUNCH_DATE":"2021-01-20","CENTER_NAME":"EARTH","MEAN_MOTION":"15.06397658","ARG_OF_PERICENTER":"54.9419","ECCENTRICITY":"0.00016120","OBJECT_ID":"2021-005AP","MEAN_MOTION_DOT":"0.00001416","OBJECT_NAME":"STARLINK-2106","COUNTRY_CODE":"US","INCLINATION":"53.0539","REF_FRAME":"TEME"},{"ELEMENT_SET_NO":"999","TLE_LINE1":"1 47387U 21005AQ  22207.56451312  .00001946  00000-0  14947-3 0  9995","MEAN_ANOMALY":"279.9614","EPOCH":"2022-07-26T13:32:53.933568","DECAY_DATE":null,"PERIAPSIS":"546.232","PERIOD":"95.592","NORAD_CAT_ID":"47387","BSTAR":"0.00014947000000","REV_AT_EPOCH":"8376","SEMIMAJOR_AXIS":"6925.343","TLE_LINE2":"2 47387  53.0536 236.8689 0001409  80.1534 279.9614 15.06401788 83762","RA_OF_ASC_NODE":"236.8689","RCS_SIZE":"LARGE","FILE":"3522226","TIME_SYSTEM":"UTC","GP_ID":"208899740","APOAPSIS":"548.184","MEAN_ELEMENT_THEORY":"SGP4","LAUNCH_DATE":"2021-01-20","MEAN_MOTION_DDOT":"0.0000000000000","SITE":"AFETR","CENTER_NAME":"EARTH","OBJECT_TYPE":"PAYLOAD","CLASSIFICATION_TYPE":"U","EPHEMERIS_TYPE":"0","MEAN_MOTION_DOT":"0.00001946","REF_FRAME":"TEME","INCLINATION":"53.0536","COUNTRY_CODE":"US","OBJECT_NAME":"STARLINK-2108","OBJECT_ID":"2021-005AQ","ECCENTRICITY":"0.00014090","ARG_OF_PERICENTER":"80.1534","MEAN_MOTION":"15.06401788"},{"MEAN_ELEMENT_THEORY":"SGP4","APOAPSIS":"548.315","GP_ID":"208905120","TIME_SYSTEM":"UTC","FILE":"3522344","RCS_SIZE":"LARGE","RA_OF_ASC_NODE":"237.0997","TLE_LINE2":"2 47388  53.0536 237.0997 0001538  62.6823 297.4323 15.06388263 84717","SEMIMAJOR_AXIS":"6925.385","REV_AT_EPOCH":"8471","BSTAR":"-0.00001629200000","NORAD_CAT_ID":"47388","PERIOD":"95.593","PERIAPSIS":"546.184","DECAY_DATE":null,"EPOCH":"2022-07-26T12:18:36.974880","MEAN_ANOMALY":"297.4323","TLE_LINE1":"1 47388U 21005AR  22207.51292795 -.00000524  00000-0 -16292-4 0  9998","ELEMENT_SET_NO":"999","MEAN_MOTION":"15.06388263","ARG_OF_PERICENTER":"62.6823","ECCENTRICITY":"0.00015380","OBJECT_ID":"2021-005AR","OBJECT_NAME":"STARLINK-2109","COUNTRY_CODE":"US","INCLINATION":"53.0536","REF_FRAME":"TEME","MEAN_MOTION_DOT":"-0.00000524","CLASSIFICATION_TYPE":"U","EPHEMERIS_TYPE":"0","OBJECT_TYPE":"PAYLOAD","CENTER_NAME":"EARTH","SITE":"AFETR","MEAN_MOTION_DDOT":"0.0000000000000","LAUNCH_DATE":"2021-01-20"},{"DECAY_DATE":null,"EPOCH":"2022-07-26T10:12:30.827520","PERIOD":"95.592","NORAD_CAT_ID":"47389","PERIAPSIS":"545.827","TLE_LINE1":"1 47389U 21005AS  22207.42535680  .00001786  00000-0  13874-3 0  9993","ELEMENT_SET_NO":"999","MEAN_ANOMALY":"301.5620","GP_ID":"208898747","APOAPSIS":"548.575","RCS_SIZE":"LARGE","RA_OF_ASC_NODE":"217.4922","FILE":"3522226","TIME_SYSTEM":"UTC","MEAN_ELEMENT_THEORY":"SGP4","SEMIMAJOR_AXIS":"6925.336","TLE_LINE2":"2 47389  53.0545 217.4922 0001984  58.5563 301.5620 15.06404236 84028","BSTAR":"0.00013874000000","REV_AT_EPOCH":"8402","EPHEMERIS_TYPE":"0","CLASSIFICATION_TYPE":"U","OBJECT_TYPE":"PAYLOAD","MEAN_MOTION_DDOT":"0.0000000000000","SITE":"AFETR","LAUNCH_DATE":"2021-01-20","CENTER_NAME":"EARTH","ARG_OF_PERICENTER":"58.5563","MEAN_MOTION":"15.06404236","OBJECT_ID":"2021-005AS","ECCENTRICITY":"0.00019840","MEAN_MOTION_DOT":"0.00001786","OBJECT_NAME":"STARLINK-2110","COUNTRY_CODE":"US","REF_FRAME":"TEME","INCLINATION":"53.0545"},{"ELEMENT_SET_NO":"999","TLE_LINE1":"1 47390U 21005AT  22207.42077453 -.00000369  00000-0 -58691-5 0  9990","MEAN_ANOMALY":"288.6371","EPOCH":"2022-07-26T10:05:54.919392","DECAY_DATE":null,"PERIAPSIS":"546.214","PERIOD":"95.593","NORAD_CAT_ID":"47390","BSTAR":"-0.00000586910000","REV_AT_EPOCH":"8374","SEMIMAJOR_AXIS":"6925.379","TLE_LINE2":"2 47390  53.0534 237.5240 0001487  71.4779 288.6371 15.06390043 83741","RA_OF_ASC_NODE":"237.5240","RCS_SIZE":"LARGE","TIME_SYSTEM":"UTC","FILE":"3522226","GP_ID":"208899499","APOAPSIS":"548.274","MEAN_ELEMENT_THEORY":"SGP4","LAUNCH_DATE":"2021-01-20","SITE":"AFETR","MEAN_MOTION_DDOT":"0.0000000000000","CENTER_NAME":"EARTH","OBJECT_TYPE":"PAYLOAD","CLASSIFICATION_TYPE":"U","EPHEMERIS_TYPE":"0","MEAN_MOTION_DOT":"-0.00000369","REF_FRAME":"TEME","INCLINATION":"53.0534","OBJECT_NAME":"STARLINK-2111","COUNTRY_CODE":"US","OBJECT_ID":"2021-005AT","ECCENTRICITY":"0.00014870","ARG_OF_PERICENTER":"71.4779","MEAN_MOTION":"15.06390043"},{"CLASSIFICATION_TYPE":"U","EPHEMERIS_TYPE":"0","OBJECT_TYPE":"PAYLOAD","MEAN_MOTION_DDOT":"0.0000000000000","SITE":"AFETR","LAUNCH_DATE":"2021-01-20","CENTER_NAME":"EARTH","ARG_OF_PERICENTER":"58.1267","MEAN_MOTION":"15.06395563","OBJECT_ID":"2021-005AU","ECCENTRICITY":"0.00017490","MEAN_MOTION_DOT":"0.00000713","OBJECT_NAME":"STARLINK-2112","COUNTRY_CODE":"US","REF_FRAME":"TEME","INCLINATION":"53.0530","DECAY_DATE":null,"EPOCH":"2022-07-26T10:19:10.217568","PERIOD":"95.592","NORAD_CAT_ID":"47391","PERIAPSIS":"546.016","TLE_LINE1":"1 47391U 21005AU  22207.42997937  .00000713  00000-0  66800-4 0  9990","ELEMENT_SET_NO":"999","MEAN_ANOMALY":"301.9892","GP_ID":"208899241","APOAPSIS":"548.438","RA_OF_ASC_NODE":"207.4821","RCS_SIZE":"LARGE","TIME_SYSTEM":"UTC","FILE":"3522226","MEAN_ELEMENT_THEORY":"SGP4","SEMIMAJOR_AXIS":"6925.362","TLE_LINE2":"2 47391  53.0530 207.4821 0001749  58.1267 301.9892 15.06395563 84160","BSTAR":"0.00006680000000","REV_AT_EPOCH":"8416"},{"BSTAR":"-0.00002201500000","REV_AT_EPOCH":"8416","SEMIMAJOR_AXIS":"6925.360","TLE_LINE2":"2 47392  53.0536 207.4774 0001551  66.0399 294.0752 15.06396200 84165","MEAN_ELEMENT_THEORY":"SGP4","RCS_SIZE":"LARGE","RA_OF_ASC_NODE":"207.4774","TIME_SYSTEM":"UTC","FILE":"3522226","GP_ID":"208897998","APOAPSIS":"548.299","MEAN_ANOMALY":"294.0752","ELEMENT_SET_NO":"999","TLE_LINE1":"1 47392U 21005AV  22207.43090554 -.00000609  00000-0 -22015-4 0  9997","PERIAPSIS":"546.151","PERIOD":"95.592","NORAD_CAT_ID":"47392","EPOCH":"2022-07-26T10:20:30.238656","DECAY_DATE":null,"REF_FRAME":"TEME","INCLINATION":"53.0536","OBJECT_NAME":"STARLINK-2113","COUNTRY_CODE":"US","MEAN_MOTION_DOT":"-0.00000609","OBJECT_ID":"2021-005AV","ECCENTRICITY":"0.00015510","ARG_OF_PERICENTER":"66.0399","MEAN_MOTION":"15.06396200","CENTER_NAME":"EARTH","LAUNCH_DATE":"2021-01-20","SITE":"AFETR","MEAN_MOTION_DDOT":"0.0000000000000","OBJECT_TYPE":"PAYLOAD","CLASSIFICATION_TYPE":"U","EPHEMERIS_TYPE":"0"},{"MEAN_ANOMALY":"294.5700","TLE_LINE1":"1 47393U 21005AW  22207.92164544  .00001084  00000-0  91667-4 0  9998","ELEMENT_SET_NO":"999","NORAD_CAT_ID":"47393","PERIOD":"95.592","PERIAPSIS":"545.909","DECAY_DATE":null,"EPOCH":"2022-07-26T22:07:10.166016","SEMIMAJOR_AXIS":"6925.361","TLE_LINE2":"2 47393  53.0538 180.6104 0001902  65.5487 294.5700 15.06395953 84587","REV_AT_EPOCH":"8458","BSTAR":"0.00009166700000","MEAN_ELEMENT_THEORY":"SGP4","APOAPSIS":"548.543","GP_ID":"208929810","FILE":"3522469","TIME_SYSTEM":"UTC","RA_OF_ASC_NODE":"180.6104","RCS_SIZE":"LARGE","CENTER_NAME":"EARTH","SITE":"AFETR","MEAN_MOTION_DDOT":"0.0000000000000","LAUNCH_DATE":"2021-01-20","CLASSIFICATION_TYPE":"U","EPHEMERIS_TYPE":"0","OBJECT_TYPE":"PAYLOAD","COUNTRY_CODE":"US","OBJECT_NAME":"STARLINK-2114","INCLINATION":"53.0538","REF_FRAME":"TEME","MEAN_MOTION_DOT":"0.00001084","MEAN_MOTION":"15.06395953","ARG_OF_PERICENTER":"65.5487","ECCENTRICITY":"0.00019020","OBJECT_ID":"2021-005AW"},{"SEMIMAJOR_AXIS":"6925.357","TLE_LINE2":"2 47394  53.0551 202.8168 0002220  48.9332 311.1848 15.06397088 84230","REV_AT_EPOCH":"8423","BSTAR":"0.00014261000000","MEAN_ELEMENT_THEORY":"SGP4","APOAPSIS":"548.760","GP_ID":"208899000","TIME_SYSTEM":"UTC","FILE":"3522226","RCS_SIZE":"LARGE","RA_OF_ASC_NODE":"202.8168","MEAN_ANOMALY":"311.1848","TLE_LINE1":"1 47394U 21005AX  22207.38899378  .00001843  00000-0  14261-3 0  9996","ELEMENT_SET_NO":"999","NORAD_CAT_ID":"47394","PERIOD":"95.592","PERIAPSIS":"545.685","DECAY_DATE":null,"EPOCH":"2022-07-26T09:20:09.062592","OBJECT_NAME":"STARLINK-2115","COUNTRY_CODE":"US","INCLINATION":"53.0551","REF_FRAME":"TEME","MEAN_MOTION_DOT":"0.00001843","MEAN_MOTION":"15.06397088","ARG_OF_PERICENTER":"48.9332","ECCENTRICITY":"0.00022200","OBJECT_ID":"2021-005AX","CENTER_NAME":"EARTH","MEAN_MOTION_DDOT":"0.0000000000000","SITE":"AFETR","LAUNCH_DATE":"2021-01-20","EPHEMERIS_TYPE":"0","CLASSIFICATION_TYPE":"U","OBJECT_TYPE":"PAYLOAD"}];
